ONEWEB-0086             
1 45456U 20020AJ  24067.05858691 -.00001103  00000+0 -31491-2 0  9995
2 45456  87.9032 186.4964 0001760  95.1116 265.0213 13.11420650193544
ONEWEB-0088             
1 45457U 20020AK  24066.34919191 -.00000304  00000+0 -89269-3 0  9999
2 45457  87.9027 186.6060 0001861 104.4678 255.6657 13.11414484193384
ONEWEB-0102             
1 47258U 20100A   24067.15954351  .00000426  00000+0  11492-2 0  9991
2 47258  87.9037 156.2757 0001770 109.8780 250.2539 13.12441555155595
ONEWEB-0109             
1 47259U 20100B   24067.16747883  .00000237  00000+0  62389-3 0  9995
2 47259  87.9038 156.2372 0001731 107.6763 252.4554 13.12440824155425
ONEWEB-0110             
1 47260U 20100C   24066.81011384 -.00000532  00000+0 -15145-2 0  9995
2 47260  87.9032 156.3190 0001729 103.9567 256.1754 13.12442243155541
ONEWEB-0111             
1 47261U 20100D   24066.99594780 -.00003859  00000+0 -10763-1 0  9996
2 47261  87.9038 156.2737 0002106 108.0104 252.1255 13.12464191155400
ONEWEB-0114             
1 47262U 20100E   24067.17858968 -.00000044  00000+0 -15742-3 0  9996
2 47262  87.9032 156.2575 0001659 121.6985 238.4305 13.12440456155383
ONEWEB-0117             
1 47263U 20100F   24067.17065695  .00000203  00000+0  52783-3 0  9995
2 47263  87.9035 156.2301 0001894 104.7471 255.3867 13.12440623155395
